TJS-4                   
1 44637U 19070A   26169.66785928 -.00000176  00000+0  00000+0 0  9999
2 44637   0.0190  66.5281 0004368 330.4098 193.8744  1.00273843 24552
TIBA-1                  
1 44800U 19080A   26169.54548664  .00000149  00000+0  00000+0 0  9992
2 44800   0.0546  15.9305 0001881  82.1831  40.5186  1.00271559 24074
INMARSAT GX5            
1 44801U 19080B   26169.18411852  .00000069  00000+0  00000+0 0  9992
2 44801   0.0348 358.9552 0002317 103.5149 241.2821  1.00273425  6793
JCSAT-18 (KACIFIC 1)    
1 44868U 19091A   26169.51919975 -.00000208  00000+0  00000+0 0  9999
2 44868   0.0372 210.8861 0000361  50.7612 342.0047  1.00268694 24025
ELEKTRO-L 3             
1 44903U 19095A   26169.78714773 -.00000102  00000+0  00000+0 0  9994
2 44903   0.2622  81.5257 0000943 352.7120 192.1106  1.00271360 23722
SHIJIAN-20 (SJ-20)      
1 44910U 19097A   26168.26405454  .00000128  00000+0  00000+0 0  9996
2 44910   4.9197  75.0598 0014479  55.6109 274.8205  1.00273013 23690
TJS-5                   
1 44978U 20002A   26169.11850215 -.00000348  00000+0  00000+0 0  9997
2 44978   0.0098 351.4479 0007615  56.6569   8.4175  1.00272003 23713
GSAT-30                 
1 45026U 20005A   26169.55488853 -.00000170  00000+0  00000+0 0  9991
2 45026   0.0289 259.8845 0003224 181.1742 108.4788  1.00269057 23522
EUTELSAT KONNECT        
1 45027U 20005B   26169.53976662  .00000043  00000+0  00000+0 0  9998
2 45027   0.0735  95.3855 0001310 137.6450 235.2733  1.00268521 24355
JCSAT-17                
1 45245U 20013A   26169.55703291 -.00000324  00000+0  00000+0 0  9990
2 45245   5.3922 356.8947 0002557  87.2188 159.2306  1.00271062 23244
GEO-KOMPSAT-2B          
1 45246U 20013B   26169.56384889 -.00000350  00000+0  00000+0 0  9999
2 45246   0.0465 193.4841 0000730  74.1044 330.4536  1.00269273 23298
BEIDOU-3 G2             
1 45344U 20017A   26169.79013429 -.00000148  00000+0  00000+0 0  9991
2 45344   2.8679  47.3874 0002026  33.3913 190.7743  1.00271732 23277
AEHF-6 (USA 298)        
1 45465U 20022B   26169.56566890 -.00000304  00000+0  00000+0 0  9995
2 45465   2.5445 301.1829 0043098  17.0723 289.9637  1.00270891 23023
BEIDOU-3 G3             
1 45807U 20040A   26169.63157807 -.00000360  00000+0  00000+0 0  9999
2 45807   2.4515  67.4513 0002350 336.6130 200.6405  1.00265631 22084
APSTAR-6D               
1 45863U 20045A   26169.20842084 -.00000323  00000+0  00000+0 0  9996
2 45863   0.0507  93.7298 0002272 351.0752  30.7172  1.00271950 21877
KOREASAT 116            
1 45920U 20048A   26169.62194676 -.00000368  00000+0  00000+0 0  9995
2 45920   0.0183 302.1430 0000852 177.4504 127.3494  1.00268454 21654
EXPRESS 103             
1 45985U 20053A   26169.62880472 -.00000287  00000+0  00000+0 0  9998
2 45985   0.0121 293.1489 0000488 355.8508 300.7353  1.00271616 21667
EXPRESS 80              
1 45986U 20053B   26169.03816006  .00000000  00000+0  00000+0 0  9998
2 45986   0.0243 318.7050 0001740 214.6743 186.6231  1.00270069 21630
BSAT-4B                 
1 46112U 20056A   26169.62037891 -.00000356  00000+0  00000+0 0  9990
2 46112   0.0546 142.7613 0004003 332.1730 125.0852  1.00271032 21407
MEV-2                   
1 46113U 20056B   26169.39565120 -.00000018  00000+0  00000+0 0  9991
2 46113   0.0174 304.7073 0000025 284.0787 179.2747  1.00270100 80563
GALAXY 30 (G-30)        
1 46114U 20056C   26169.58499566  .00000031  00000+0  00000+0 0  9997
2 46114   0.0005 358.2439 0002143  87.8738 266.2948  1.00272092 21304
GAOFEN-13 01            
1 46610U 20071A   26169.63322475 -.00000369  00000+0  00000+0 0  9990
2 46610   0.5261  84.8374 0041379 123.6649  44.5374  1.00269853 20937
TIANTONG-1 2            
1 46916U 20082A   26169.63443808 -.00000362  00000+0  00000+0 0  9998
2 46916   0.7880 327.7799 0001007 108.4682 183.9357  1.00268655 20665
LUCAS (JDRS-1)          
1 47202U 20089A   26169.64496116 -.00000241  00000+0  00000+0 0  9991
2 47202   0.0542 273.7469 0002294 149.8615 166.2495  1.00269504 20436
SXM-7                   
1 47240U 20096A   26169.59288236 -.00000211  00000+0  00000+0 0  9994
2 47240   0.0317  97.5874 0003739  25.9654 271.5528  1.00271782  7457
CMS-01                  
1 47256U 20099A   26169.55488853 -.00000171  00000+0  00000+0 0  9992
2 47256   0.1024  94.0595 0003612 182.0020 273.4832  1.00271897 20219
TURKSAT 5A              
1 47306U 21001A   26169.54453331  .00000148  00000+0  00000+0 0  9997
2 47306   0.0192  61.1305 0000254 286.3821 146.2307  1.00270221 19986
TIANTONG-1 3            
1 47321U 21003A   26169.41203567 -.00000160  00000+0  00000+0 0  9991
2 47321   1.7555 339.4100 0003005 113.1723  43.9300  1.00270129 19975
TJS-6                   
1 47613U 21010A   26169.57381560  .00000036  00000+0  00000+0 0  9991
2 47613   0.2468 264.1120 0002952 225.8165 161.9305  1.00269706 19822
SBIRS GEO-5 (USA 315)   
1 48618U 21042A   26169.48549279 -.00000275  00000+0  00000+0 0  9991
2 48618   5.1016 329.1464 0001339 119.5594  86.6019  1.00270914 18789
FENGYUN 4B              
1 48808U 21047A   26169.63045140 -.00000337  00000+0  00000+0 0  9991
2 48808   0.1574  77.6836 0005946 275.7723 245.0245  1.00276040 18585
SXM-8                   
1 48838U 21049A   26169.59288236 -.00000211  00000+0  00000+0 0  9997
2 48838   0.0190  19.6988 0005041  11.6111   3.8043  1.00270092 18597
TIANLIAN 1-05           
1 49011U 21063A   26169.61307579  .00000101  00000+0  00000+0 0  9999
2 49011   1.5985  80.6948 0000496 341.1606  82.5014  1.00271784 18098
STAR ONE D2             
1 49055U 21069A   26169.52459988  .00000000  00000+0  00000+0 0  9993
2 49055   0.0158 338.7903 0002223 133.2448 273.4828  1.00271938 17953
EUTELSAT QUANTUM        
1 49056U 21069B   26169.54791332  .00000120  00000+0  00000+0 0  9991
2 49056   0.0137  19.6196 0002099  66.4444  65.6635  1.00272028 17941
ZHONGXING-2E            
1 49062U 21071A   26169.65499288 -.00000297  00000+0  00000+0 0  9994
2 49062   0.0368 205.9703 0001830 285.3894 109.3801  1.00269234 18050
TJS-7                   
1 49115U 21077A   26166.28660921 -.00000120  00000+0  00000+0 0  9994
2 49115   0.5030  86.1055 0001963 333.0157 208.1393  1.00269621  9536
CHINASAT 9B             
1 49125U 21080A   26169.62975806 -.00000318  00000+0  00000+0 0  9990
2 49125   0.0403 263.0922 0001547 214.2248 117.6433  1.00267759 17666
SHIJIAN-21 (SJ-21)      
1 49330U 21094A   26169.64684122 -.00000356  00000+0  00000+0 0  9995
2 49330   5.1173  61.1769 0049728 168.2896  38.3140  1.00270008  5370
SES-17                  
1 49332U 21095A   26169.59643572 -.00000278  00000+0  00000+0 0  9999
2 49332   0.0267  40.8266 0000811  45.0665 328.5524  1.00269036 17868
SYRACUSE 4A             
1 49333U 21095B   26169.54747999  .00000129  00000+0  00000+0 0  9997
2 49333   0.0179 359.9991 0001571  80.8905  68.4879  1.00268573 17967
QZS-1R (MICHIBIKI-1R)   
1 49336U 21096A   26167.63839491 -.00000283  00000+0  00000+0 0  9990
2 49336  37.4612  79.5914 0754866 271.7927 277.3771  1.00255427 17004
ZHONGXING-1D            
1 49505U 21114A   26169.62743337 -.00000343  00000+0  00000+0 0  9990
2 49505   0.0339 210.6320 0000753  10.8575  41.4083  1.00268031 16834
STPSAT-6                
1 49817U 21118A   26169.58759567 -.00000052  00000+0  00000+0 0  9994
2 49817   0.3254  85.3518 0001231 251.6406  29.7269  1.00269028 16589
EXPRESS AMU-7           
1 50001U 21123A   26169.56714223 -.00000249  00000+0  00000+0 0  9993
2 50001   0.0150 294.0691 0000443  21.3873 300.5175  1.00272273 16552
EXPRESS AMU-3           
1 50002U 21123B   26168.97469524  .00000000  00000+0  00000+0 0  9993
2 50002   0.0257 316.1860 0000427 351.4369  52.3733  1.00270980  7043
TIANLIAN 2-02           
1 50005U 21124A   26169.50101903 -.00000021  00000+0  00000+0 0  9995
2 50005   0.8054  86.0806 0001419 194.4389 337.5468  1.00270980 16639
TURKSAT 5B              
1 50212U 21126A   26169.54678666  .00000140  00000+0  00000+0 0  9997
2 50212   0.0677 342.5194 0003284  13.2122 149.8867  1.00270769 16314
INMARSAT 6-F1           
1 50319U 21128A   26169.55506186 -.00000178  00000+0  00000+0 0  9997
2 50319   0.0175 327.0987 0000354 242.1960 341.0785  1.00269096 16272
SHIYAN-12 01 (SY-12 01) 
1 50321U 21129A   26168.80373469  .00000079  00000+0  00000+0 0  9993
2 50321   3.6768  79.9013 0003248 285.9957 249.0802  1.00039709 16500
SHIYAN-12 02 (SY-12 02) 
1 50322U 21129B   26168.77196078 -.00000271  00000+0  00000+0 0  9994
2 50322   3.6763  79.9071 0002693  60.0968 133.2903  1.00489217 16506
TJS-9                   
1 50574U 21135A   26169.63687586 -.00000305  00000+0  00000+0 0  9993
2 50574   0.0379 244.6723 0003610 166.2015 222.4667  1.00274607 16442
USA 324                 
1 51280U 22006A   26157.08795008 -.00000058  00000+0  00000+0 0  9996
2 51280   0.7690  83.2777 0002840 165.6787 110.1567  1.00289779 16021
GOES 18                 
1 51850U 22021A   26169.58256898  .00000090  00000+0  00000+0 0  9998
2 51850   0.0077  73.6037 0000337  71.6585 194.2700  1.00271167  6606
ZHONGXING-6D            
1 52255U 22038A   26168.91358994  .00000000  00000+0  00000+0 0  9993
2 52255   0.0151 308.1428 0000486 137.2138 274.6489  1.00269622 15438
NILESAT 301             
1 52817U 22061A   26169.39443787 -.00000064  00000+0  00000+0 0  9992
2 52817   0.0486  14.9328 0004631  41.1337 345.5622  1.00270762 14741
CMS-02 (GSAT-24)        
1 52903U 22067A   26169.55488853 -.00000171  00000+0  00000+0 0  9994
2 52903   0.0538 255.9306 0001846 108.5825 185.0468  1.00271987 14625
MEASAT 3D               
1 52904U 22067B   26169.60477516 -.00000248  00000+0  00000+0 0  9990
2 52904   0.0275 344.4546 0001370  28.8996 202.7047  1.00271892 14668
SES-22                  
1 52933U 22071A   26169.58222231  .00000098  00000+0  00000+0 0  9998
2 52933   0.0159 355.0182 0001318  79.5220 262.8597  1.00271781  7532
